ONEWEB-0616             
1 55157U 23004T   26046.94890140  .00000098  00000+0  21842-3 0  9991
2 55157  87.9126  29.9451 0000984 100.9636 259.1606 13.17648692151737
ONEWEB-0617             
1 55158U 23004U   26046.98402896  .00000505  00000+0  13898-2 0  9997
2 55158  87.8831  45.1728 0002223  85.0507 275.0875 13.11417955149973
ONEWEB-0618             
1 55159U 23004V   26046.98464863  .00005394  00000+0  31464-3 0  9991
2 55159  86.9027 226.7833 0014060  32.1191 328.0901 15.11670589163947
ONEWEB-0619             
1 55160U 23004W   26046.98096419 -.00000016  00000+0 -73192-4 0  9994
2 55160  87.9120  29.9127 0001736  73.1204 287.0118 13.17647301151636
ONEWEB-0620             
1 55161U 23004X   26046.97895619  .00000586  00000+0  16187-2 0  9992
2 55161  87.8826  45.1913 0002127  92.5805 267.5567 13.11417616149949
ONEWEB-0621             
1 55162U 23004Y   26047.00607312 -.00000308  00000+0 -90485-3 0  9997
2 55162  87.8831  45.1632 0001986  82.2417 277.8937 13.11414882149926
ONEWEB-0622             
1 55163U 23004Z   26047.01115362 -.00000520  00000+0 -15043-2 0  9990
2 55163  87.8825  45.1659 0002594  80.2538 279.8883 13.11415122149916
ONEWEB-0623             
1 55164U 23004AA  26046.97590389 -.00000009  00000+0 -55739-4 0  9991
2 55164  87.9106  29.9578 0002317  67.4230 292.7146 13.17647518151628
ONEWEB-0624             
1 55165U 23004AB  26046.94614428 -.00000169  00000+0 -50241-3 0  9999
2 55165  87.8963  14.6705 0002043  78.4719 281.6639 13.12924062152163
ONEWEB-0625             
1 55166U 23004AC  26046.96578284 -.00000009  00000+0 -57530-4 0  9993
2 55166  87.9109  29.9535 0001716  84.8348 275.2980 13.17648458151616
ONEWEB-0626             
1 55167U 23004AD  26046.95565014  .00000038  00000+0  64794-4 0  9990
2 55167  87.9110  29.9557 0002149  98.3415 261.7960 13.17648120151613
ONEWEB-0627             
1 55168U 23004AE  26046.94383904  .00000054  00000+0  10663-3 0  9999
2 55168  87.9112  29.9577 0002298  73.4628 286.6756 13.17649627151615
ONEWEB-0628             
1 55169U 23004AF  26047.26417487  .00000188  00000+0  48848-3 0  9994
2 55169  87.8973  14.6509 0002140  62.7127 297.4219 13.12444216152175
ONEWEB-0629             
1 55170U 23004AG  26046.91936969  .00000044  00000+0  81274-4 0  9990
2 55170  87.9110  29.9607 0001713  75.8300 284.3022 13.17649433151610
ONEWEB-0631             
1 55171U 23004AH  26047.22988271  .00000053  00000+0  10123-3 0  9993
2 55171  87.9240 359.4476 0002346  88.3030 271.8371 13.18684921153737
ONEWEB-0709             
1 55172U 23004AJ  26046.96878126  .00000385  00000+0  10515-2 0  9993
2 55172  87.8832  45.1960 0002300 109.7220 250.4156 13.11419385149989
ONEWEB-0710             
1 55173U 23004AK  26047.00964958 -.00000049  00000+0 -16034-3 0  9991
2 55173  87.9111  29.9368 0002060  82.7853 277.3513 13.17648429151626
