[{"OBJECT_NAME":"ONEWEB-0616","OBJECT_ID":"2023-004T","EPOCH":"2026-02-15T22:46:25.080960","MEAN_MOTION":13.17648692,"ECCENTRICITY":9.84e-5,"INCLINATION":87.9126,"RA_OF_ASC_NODE":29.9451,"ARG_OF_PERICENTER":100.9636,"MEAN_ANOMALY":259.1606,"EPHEMERIS_TYPE":0,"CLASSIFICATION_TYPE":"U","NORAD_CAT_ID":55157,"ELEMENT_SET_NO":999,"REV_AT_EPOCH":15173,"BSTAR":0.00021842,"MEAN_MOTION_DOT":9.8e-7,"MEAN_MOTION_DDOT":0},{"OBJECT_NAME":"ONEWEB-0617","OBJECT_ID":"2023-004U","EPOCH":"2026-02-15T23:37:00.102144","MEAN_MOTION":13.11417955,"ECCENTRICITY":0.0002223,"INCLINATION":87.8831,"RA_OF_ASC_NODE":45.1728,"ARG_OF_PERICENTER":85.0507,"MEAN_ANOMALY":275.0875,"EPHEMERIS_TYPE":0,"CLASSIFICATION_TYPE":"U","NORAD_CAT_ID":55158,"ELEMENT_SET_NO":999,"REV_AT_EPOCH":14997,"BSTAR":0.0013898,"MEAN_MOTION_DOT":5.05e-6,"MEAN_MOTION_DDOT":0},{"OBJECT_NAME":"ONEWEB-0618","OBJECT_ID":"2023-004V","EPOCH":"2026-02-15T23:37:53.641632","MEAN_MOTION":15.11670589,"ECCENTRICITY":0.00140607,"INCLINATION":86.9027,"RA_OF_ASC_NODE":226.7833,"ARG_OF_PERICENTER":32.1191,"MEAN_ANOMALY":328.0901,"EPHEMERIS_TYPE":0,"CLASSIFICATION_TYPE":"U","NORAD_CAT_ID":55159,"ELEMENT_SET_NO":999,"REV_AT_EPOCH":16394,"BSTAR":0.0003146445,"MEAN_MOTION_DOT":5.394e-5,"MEAN_MOTION_DDOT":0},{"OBJECT_NAME":"ONEWEB-0619","OBJECT_ID":"2023-004W","EPOCH":"2026-02-15T23:32:35.306016","MEAN_MOTION":13.17647301,"ECCENTRICITY":0.0001736,"INCLINATION":87.912,"RA_OF_ASC_NODE":29.9127,"ARG_OF_PERICENTER":73.1204,"MEAN_ANOMALY":287.0118,"EPHEMERIS_TYPE":0,"CLASSIFICATION_TYPE":"U","NORAD_CAT_ID":55160,"ELEMENT_SET_NO":999,"REV_AT_EPOCH":15163,"BSTAR":-7.3192e-5,"MEAN_MOTION_DOT":-1.6e-7,"MEAN_MOTION_DDOT":0},{"OBJECT_NAME":"ONEWEB-0620","OBJECT_ID":"2023-004X","EPOCH":"2026-02-15T23:29:41.814816","MEAN_MOTION":13.11417616,"ECCENTRICITY":0.0002127,"INCLINATION":87.8826,"RA_OF_ASC_NODE":45.1913,"ARG_OF_PERICENTER":92.5805,"MEAN_ANOMALY":267.5567,"EPHEMERIS_TYPE":0,"CLASSIFICATION_TYPE":"U","NORAD_CAT_ID":55161,"ELEMENT_SET_NO":999,"REV_AT_EPOCH":14994,"BSTAR":0.0016187,"MEAN_MOTION_DOT":5.86e-6,"MEAN_MOTION_DDOT":0},{"OBJECT_NAME":"ONEWEB-0621","OBJECT_ID":"2023-004Y","EPOCH":"2026-02-16T00:08:44.717568","MEAN_MOTION":13.11414882,"ECCENTRICITY":0.00019869,"INCLINATION":87.8831,"RA_OF_ASC_NODE":45.1632,"ARG_OF_PERICENTER":82.2417,"MEAN_ANOMALY":277.8937,"EPHEMERIS_TYPE":0,"CLASSIFICATION_TYPE":"U","NORAD_CAT_ID":55162,"ELEMENT_SET_NO":999,"REV_AT_EPOCH":14992,"BSTAR":-0.00090484955,"MEAN_MOTION_DOT":-3.08e-6,"MEAN_MOTION_DDOT":0},{"OBJECT_NAME":"ONEWEB-0622","OBJECT_ID":"2023-004Z","EPOCH":"2026-02-16T00:16:03.672768","MEAN_MOTION":13.11415122,"ECCENTRICITY":0.00025945,"INCLINATION":87.8825,"RA_OF_ASC_NODE":45.1659,"ARG_OF_PERICENTER":80.2538,"MEAN_ANOMALY":279.8883,"EPHEMERIS_TYPE":0,"CLASSIFICATION_TYPE":"U","NORAD_CAT_ID":55163,"ELEMENT_SET_NO":999,"REV_AT_EPOCH":14991,"BSTAR":-0.0015043406,"MEAN_MOTION_DOT":-5.2e-6,"MEAN_MOTION_DDOT":0},{"OBJECT_NAME":"ONEWEB-0623","OBJECT_ID":"2023-004AA","EPOCH":"2026-02-15T23:25:18.096096","MEAN_MOTION":13.17647518,"ECCENTRICITY":0.0002317,"INCLINATION":87.9106,"RA_OF_ASC_NODE":29.9578,"ARG_OF_PERICENTER":67.423,"MEAN_ANOMALY":292.7146,"EPHEMERIS_TYPE":0,"CLASSIFICATION_TYPE":"U","NORAD_CAT_ID":55164,"ELEMENT_SET_NO":999,"REV_AT_EPOCH":15162,"BSTAR":-5.5739e-5,"MEAN_MOTION_DOT":-9.0e-8,"MEAN_MOTION_DDOT":0},{"OBJECT_NAME":"ONEWEB-0624","OBJECT_ID":"2023-004AB","EPOCH":"2026-02-15T22:42:26.865792","MEAN_MOTION":13.12924062,"ECCENTRICITY":0.0002043,"INCLINATION":87.8963,"RA_OF_ASC_NODE":14.6705,"ARG_OF_PERICENTER":78.4719,"MEAN_ANOMALY":281.6639,"EPHEMERIS_TYPE":0,"CLASSIFICATION_TYPE":"U","NORAD_CAT_ID":55165,"ELEMENT_SET_NO":999,"REV_AT_EPOCH":15216,"BSTAR":-0.00050241,"MEAN_MOTION_DOT":-1.69e-6,"MEAN_MOTION_DDOT":0},{"OBJECT_NAME":"ONEWEB-0625","OBJECT_ID":"2023-004AC","EPOCH":"2026-02-15T23:10:43.637376","MEAN_MOTION":13.17648458,"ECCENTRICITY":0.0001716,"INCLINATION":87.9109,"RA_OF_ASC_NODE":29.9535,"ARG_OF_PERICENTER":84.8348,"MEAN_ANOMALY":275.298,"EPHEMERIS_TYPE":0,"CLASSIFICATION_TYPE":"U","NORAD_CAT_ID":55166,"ELEMENT_SET_NO":999,"REV_AT_EPOCH":15161,"BSTAR":-5.753e-5,"MEAN_MOTION_DOT":-9.0e-8,"MEAN_MOTION_DDOT":0},{"OBJECT_NAME":"ONEWEB-0626","OBJECT_ID":"2023-004AD","EPOCH":"2026-02-15T22:56:08.172096","MEAN_MOTION":13.1764812,"ECCENTRICITY":0.0002149,"INCLINATION":87.911,"RA_OF_ASC_NODE":29.9557,"ARG_OF_PERICENTER":98.3415,"MEAN_ANOMALY":261.796,"EPHEMERIS_TYPE":0,"CLASSIFICATION_TYPE":"U","NORAD_CAT_ID":55167,"ELEMENT_SET_NO":999,"REV_AT_EPOCH":15161,"BSTAR":6.4794e-5,"MEAN_MOTION_DOT":3.8e-7,"MEAN_MOTION_DDOT":0},{"OBJECT_NAME":"ONEWEB-0627","OBJECT_ID":"2023-004AE","EPOCH":"2026-02-15T22:39:07.693056","MEAN_MOTION":13.17649627,"ECCENTRICITY":0.0002298,"INCLINATION":87.9112,"RA_OF_ASC_NODE":29.9577,"ARG_OF_PERICENTER":73.4628,"MEAN_ANOMALY":286.6756,"EPHEMERIS_TYPE":0,"CLASSIFICATION_TYPE":"U","NORAD_CAT_ID":55168,"ELEMENT_SET_NO":999,"REV_AT_EPOCH":15161,"BSTAR":0.00010663,"MEAN_MOTION_DOT":5.4e-7,"MEAN_MOTION_DDOT":0},{"OBJECT_NAME":"ONEWEB-0628","OBJECT_ID":"2023-004AF","EPOCH":"2026-02-16T06:20:24.708768","MEAN_MOTION":13.12444216,"ECCENTRICITY":0.00021409,"INCLINATION":87.8973,"RA_OF_ASC_NODE":14.6509,"ARG_OF_PERICENTER":62.7127,"MEAN_ANOMALY":297.4219,"EPHEMERIS_TYPE":0,"CLASSIFICATION_TYPE":"U","NORAD_CAT_ID":55169,"ELEMENT_SET_NO":999,"REV_AT_EPOCH":15217,"BSTAR":0.00048848305,"MEAN_MOTION_DOT":1.88e-6,"MEAN_MOTION_DDOT":0},{"OBJECT_NAME":"ONEWEB-0629","OBJECT_ID":"2023-004AG","EPOCH":"2026-02-15T22:03:53.541216","MEAN_MOTION":13.17649433,"ECCENTRICITY":0.0001713,"INCLINATION":87.911,"RA_OF_ASC_NODE":29.9607,"ARG_OF_PERICENTER":75.83,"MEAN_ANOMALY":284.3022,"EPHEMERIS_TYPE":0,"CLASSIFICATION_TYPE":"U","NORAD_CAT_ID":55170,"ELEMENT_SET_NO":999,"REV_AT_EPOCH":15161,"BSTAR":8.1274e-5,"MEAN_MOTION_DOT":4.4e-7,"MEAN_MOTION_DDOT":0},{"OBJECT_NAME":"ONEWEB-0631","OBJECT_ID":"2023-004AH","EPOCH":"2026-02-16T05:31:01.866144","MEAN_MOTION":13.18684921,"ECCENTRICITY":0.00023463,"INCLINATION":87.924,"RA_OF_ASC_NODE":359.4476,"ARG_OF_PERICENTER":88.303,"MEAN_ANOMALY":271.8371,"EPHEMERIS_TYPE":0,"CLASSIFICATION_TYPE":"U","NORAD_CAT_ID":55171,"ELEMENT_SET_NO":999,"REV_AT_EPOCH":15373,"BSTAR":0.00010122718,"MEAN_MOTION_DOT":5.3e-7,"MEAN_MOTION_DDOT":0},{"OBJECT_NAME":"ONEWEB-0709","OBJECT_ID":"2023-004AJ","EPOCH":"2026-02-15T23:15:02.700864","MEAN_MOTION":13.11419385,"ECCENTRICITY":0.00023,"INCLINATION":87.8832,"RA_OF_ASC_NODE":45.196,"ARG_OF_PERICENTER":109.722,"MEAN_ANOMALY":250.4156,"EPHEMERIS_TYPE":0,"CLASSIFICATION_TYPE":"U","NORAD_CAT_ID":55172,"ELEMENT_SET_NO":999,"REV_AT_EPOCH":14998,"BSTAR":0.0010515,"MEAN_MOTION_DOT":3.85e-6,"MEAN_MOTION_DDOT":0},{"OBJECT_NAME":"ONEWEB-0710","OBJECT_ID":"2023-004AK","EPOCH":"2026-02-16T00:13:53.723712","MEAN_MOTION":13.17648429,"ECCENTRICITY":0.00020606,"INCLINATION":87.9111,"RA_OF_ASC_NODE":29.9368,"ARG_OF_PERICENTER":82.7853,"MEAN_ANOMALY":277.3513,"EPHEMERIS_TYPE":0,"CLASSIFICATION_TYPE":"U","NORAD_CAT_ID":55173,"ELEMENT_SET_NO":999,"REV_AT_EPOCH":15162,"BSTAR":-0.00016033643,"MEAN_MOTION_DOT":-4.9e-7,"MEAN_MOTION_DDOT":0}]
